[{"OBJECT_NAME":"SAUDISAT 5A","OBJECT_ID":"2018-102A","EPOCH":"2026-03-09T23:40:00.596928","MEAN_MOTION":15.26941021,"ECCENTRICITY":0.00113651,"INCLINATION":97.3185,"RA_OF_ASC_NODE":132.4981,"ARG_OF_PERICENTER":121.7113,"MEAN_ANOMALY":238.5235,"EPHEMERIS_TYPE":0,"CLASSIFICATION_TYPE":"U","NORAD_CAT_ID":43831,"ELEMENT_SET_NO":999,"REV_AT_EPOCH":40053,"BSTAR":0.00030305233,"MEAN_MOTION_DOT":7.96e-5,"MEAN_MOTION_DDOT":0},{"OBJECT_NAME":"STARLINK-30755","OBJECT_ID":"2023-167M","EPOCH":"2026-03-09T06:26:43.179648","MEAN_MOTION":15.27603027,"ECCENTRICITY":0.00041726,"INCLINATION":43.0067,"RA_OF_ASC_NODE":145.5335,"ARG_OF_PERICENTER":301.203,"MEAN_ANOMALY":58.8413,"EPHEMERIS_TYPE":0,"CLASSIFICATION_TYPE":"U","NORAD_CAT_ID":58186,"ELEMENT_SET_NO":999,"REV_AT_EPOCH":13092,"BSTAR":8.7319653e-5,"MEAN_MOTION_DOT":2.142e-5,"MEAN_MOTION_DDOT":0}]
